{
  "type": "FeatureCollection",
  "features": [
    {
      "type": "Feature",
      "properties": {},
      "geometry": {
        "coordinates": [
          [
            [
              -82.21601717270565,
              41.19010803777411
            ],
            [
              -74.56005138766977,
              44.47159951015095
            ],
            [
              -69.78625516633913,
              45.119867439305295
            ],
            [
              -69.57841224288997,
              46.91289325255818
            ],
            [
              -68.24705343682258,
              46.609386329306005
            ],
            [
              -66.73261623329724,
              44.12715672220736
            ],
            [
              -63.66147170243275,
              42.702984585347224
            ],
            [
              -49.744399581161815,
              47.20818730059594
            ],
            [
              -65.75305472701079,
              61.02121265699674
            ],
            [
              -81.40087387836897,
              65.75339831863411
            ],
            [
              -81.92908885147976,
              69.61093241210469
            ],
            [
              -143.18919231196986,
              70.08521366738444
            ],
            [
              -141.2795333818459,
              59.75076999386505
            ],
            [
              -135.2255068237132,
              58.41254100370023
            ],
            [
              -131.16199815884,
              54.60923262945741
            ],
            [
              -126.96398194015386,
              46.8933343681519
            ],
            [
              -122.73601270422206,
              47.971762972269175
            ],
            [
              -122.6262292216828,
              48.73600476907944
            ],
            [
              -95.2206274044302,
              48.785482012402156
            ],
            [
              -89.45254492156519,
              47.20179902215253
            ],
            [
              -86.52881482942585,
              47.36075096949307
            ],
            [
              -83.38427502969611,
              45.36775344498858
            ],
            [
              -83.72584934542395,
              42.09783142553647
            ],
            [
              -82.21601717270565,
              41.19010803777411
            ]
          ]
        ],
        "type": "Polygon"
      }
    }
  ]
}